{
  "type": "FeatureCollection",
  "features": [
    {
      "type": "Feature",
      "properties": {
        "norad_id": 66907,
        "name": "1998-067XT",
        "group": "stations",
        "lat": 9.231181314251865,
        "lon": -20.794997655803172,
        "alt_km": 411.3444041051971,
        "timestamp": "2025-12-07T20:38:12.884582+00:00",
        "meta_object_name": "1998-067XT",
        "meta_object_id": "1998-067XT",
        "meta_epoch": "2025-12-07T05:59:38.363712",
        "meta_mean_motion": 15.50548845,
        "meta_eccentricity": 0.00050774,
        "meta_inclination": 51.6298,
        "meta_ra_of_asc_node": 169.6308,
        "meta_arg_of_pericenter": 196.245,
        "meta_mean_anomaly": 163.8377,
        "meta_ephemeris_type": 0,
        "meta_classification_type": "U",
        "meta_norad_cat_id": 66907,
        "meta_element_set_no": 999,
        "meta_rev_at_epoch": 76,
        "meta_bstar": 0.0013100071,
        "meta_mean_motion_dot": 0.00076543,
        "meta_mean_motion_ddot": 0,
        "tle_line1": "1 66907U 98067XT  25341.24974958  .00076543  00000+0  13100-2 0  9992",
        "tle_line2": "2 66907  51.6298 169.6308 0005077 196.2450 163.8377 15.50548845   763"
      },
      "geometry": {
        "type": "Point",
        "coordinates": [
          -20.794997655803172,
          9.231181314251865
        ]
      }
    },
    {
      "type": "Feature",
      "properties": {
        "norad_id": 66908,
        "name": "1998-067XU",
        "group": "stations",
        "lat": 8.538150921702096,
        "lon": -20.23010452446699,
        "alt_km": 411.1765315819175,
        "timestamp": "2025-12-07T20:38:12.884591+00:00",
        "meta_object_name": "1998-067XU",
        "meta_object_id": "1998-067XU",
        "meta_epoch": "2025-12-07T05:59:26.026656",
        "meta_mean_motion": 15.50595365,
        "meta_eccentricity": 0.00052733,
        "meta_inclination": 51.6295,
        "meta_ra_of_asc_node": 169.6298,
        "meta_arg_of_pericenter": 195.7563,
        "meta_mean_anomaly": 164.3263,
        "meta_ephemeris_type": 0,
        "meta_classification_type": "U",
        "meta_norad_cat_id": 66908,
        "meta_element_set_no": 999,
        "meta_rev_at_epoch": 76,
        "meta_bstar": 0.0011866563,
        "meta_mean_motion_dot": 0.00069346,
        "meta_mean_motion_ddot": 0,
        "tle_line1": "1 66908U 98067XU  25341.24960679  .00069346  00000+0  11867-2 0  9999",
        "tle_line2": "2 66908  51.6295 169.6298 0005273 195.7563 164.3263 15.50595365   765"
      },
      "geometry": {
        "type": "Point",
        "coordinates": [
          -20.23010452446699,
          8.538150921702096
        ]
      }
    },
    {
      "type": "Feature",
      "properties": {
        "norad_id": 66909,
        "name": "1998-067XV",
        "group": "stations",
        "lat": 8.228111058147812,
        "lon": -19.97956308138261,
        "alt_km": 411.04020673551804,
        "timestamp": "2025-12-07T20:38:12.884601+00:00",
        "meta_object_name": "1998-067XV",
        "meta_object_id": "1998-067XV",
        "meta_epoch": "2025-12-06T23:48:09.042912",
        "meta_mean_motion": 15.50609226,
        "meta_eccentricity": 0.00052543,
        "meta_inclination": 51.6296,
        "meta_ra_of_asc_node": 170.9073,
        "meta_arg_of_pericenter": 195.3758,
        "meta_mean_anomaly": 164.7072,
        "meta_ephemeris_type": 0,
        "meta_classification_type": "U",
        "meta_norad_cat_id": 66909,
        "meta_element_set_no": 999,
        "meta_rev_at_epoch": 72,
        "meta_bstar": 0.0013867176,
        "meta_mean_motion_dot": 0.00081279,
        "meta_mean_motion_ddot": 0,
        "tle_line1": "1 66909U 98067XV  25340.99177133  .00081279  00000+0  13867-2 0  9997",
        "tle_line2": "2 66909  51.6296 170.9073 0005254 195.3758 164.7072 15.50609226   724"
      },
      "geometry": {
        "type": "Point",
        "coordinates": [
          -19.97956308138261,
          8.228111058147812
        ]
      }
    },
    {
      "type": "Feature",
      "properties": {
        "norad_id": 66910,
        "name": "1998-067XW",
        "group": "stations",
        "lat": 4.0987632228938,
        "lon": -16.66519093255047,
        "alt_km": 410.0243649401127,
        "timestamp": "2025-12-07T20:38:12.884611+00:00",
        "meta_object_name": "1998-067XW",
        "meta_object_id": "1998-067XW",
        "meta_epoch": "2025-12-07T05:58:08.485248",
        "meta_mean_motion": 15.50882023,
        "meta_eccentricity": 0.0006057,
        "meta_inclination": 51.6294,
        "meta_ra_of_asc_node": 169.6237,
        "meta_arg_of_pericenter": 181.9065,
        "meta_mean_anomaly": 178.1903,
        "meta_ephemeris_type": 0,
        "meta_classification_type": "U",
        "meta_norad_cat_id": 66910,
        "meta_element_set_no": 999,
        "meta_rev_at_epoch": 76,
        "meta_bstar": 0.0012693792,
        "meta_mean_motion_dot": 0.00075043,
        "meta_mean_motion_ddot": 0,
        "tle_line1": "1 66910U 98067XW  25341.24870932  .00075043  00000+0  12694-2 0  9994",
        "tle_line2": "2 66910  51.6294 169.6237 0006057 181.9065 178.1903 15.50882023   769"
      },
      "geometry": {
        "type": "Point",
        "coordinates": [
          -16.66519093255047,
          4.0987632228938
        ]
      }
    },
    {
      "type": "Feature",
      "properties": {
        "norad_id": 66911,
        "name": "1998-067XX",
        "group": "stations",
        "lat": 3.3915440332465394,
        "lon": -16.10364422036507,
        "alt_km": 409.8698256464786,
        "timestamp": "2025-12-07T20:38:12.884620+00:00",
        "meta_object_name": "1998-067XX",
        "meta_object_id": "1998-067XX",
        "meta_epoch": "2025-12-07T05:57:57.962592",
        "meta_mean_motion": 15.50976339,
        "meta_eccentricity": 0.000596,
        "meta_inclination": 51.6294,
        "meta_ra_of_asc_node": 169.6228,
        "meta_arg_of_pericenter": 182.6647,
        "meta_mean_anomaly": 177.4311,
        "meta_ephemeris_type": 0,
        "meta_classification_type": "U",
        "meta_norad_cat_id": 66911,
        "meta_element_set_no": 999,
        "meta_rev_at_epoch": 75,
        "meta_bstar": 0.0014605419,
        "meta_mean_motion_dot": 0.00086834,
        "meta_mean_motion_ddot": 0,
        "tle_line1": "1 66911U 98067XX  25341.24858753  .00086834  00000+0  14605-2 0  9996",
        "tle_line2": "2 66911  51.6294 169.6228 0005960 182.6647 177.4311 15.50976339   754"
      },
      "geometry": {
        "type": "Point",
        "coordinates": [
          -16.10364422036507,
          3.3915440332465394
        ]
      }
    },
    {
      "type": "Feature",
      "properties": {
        "norad_id": 66912,
        "name": "1998-067XY",
        "group": "stations",
        "lat": 10.318841743332692,
        "lon": -21.689650790333072,
        "alt_km": 411.52253202281554,
        "timestamp": "2025-12-07T20:38:12.884630+00:00",
        "meta_object_name": "1998-067XY",
        "meta_object_id": "1998-067XY",
        "meta_epoch": "2025-12-06T19:10:11.930016",
        "meta_mean_motion": 15.50363521,
        "meta_eccentricity": 0.00052356,
        "meta_inclination": 51.6299,
        "meta_ra_of_asc_node": 171.8684,
        "meta_arg_of_pericenter": 194.0341,
        "meta_mean_anomaly": 166.0503,
        "meta_ephemeris_type": 0,
        "meta_classification_type": "U",
        "meta_norad_cat_id": 66912,
        "meta_element_set_no": 999,
        "meta_rev_at_epoch": 68,
        "meta_bstar": 0.0011553511,
        "meta_mean_motion_dot": 0.00066928,
        "meta_mean_motion_ddot": 0,
        "tle_line1": "1 66912U 98067XY  25340.79874919  .00066928  00000+0  11554-2 0  9990",
        "tle_line2": "2 66912  51.6299 171.8684 0005235 194.0341 166.0503 15.50363521   686"
      },
      "geometry": {
        "type": "Point",
        "coordinates": [
          -21.689650790333072,
          10.318841743332692
        ]
      }
    }
  ]
}